     2.10           G: GLONASS NAV DATA                     RINEX VERSION / TYPE
teqc  2015Jun23                         20210601 02:25:47UTCPGM / RUN BY / DATE
Linux 2.4.21-27.ELsmp|Opteron|gcc -static|Linux x86_64|=+   COMMENT
  2021     5     8    1.676380634308D-08                    CORR TO SYSTEM TIME
                                                            END OF HEADER
12 21  5  9 12 15  0.0 2.274699509144D-04 2.728484105319D-12 4.320000000000D+04
   -8.479633789062D+02-2.825896263123D+00-1.862645149231D-09 0.000000000000D+00
    1.150644921875D+04-1.318133354187D+00-0.000000000000D+00-1.000000000000D+00
   -2.272731152344D+04-5.595102310181D-01 1.862645149231D-09 0.000000000000D+00
13 21  5  9 12 15  0.0-5.451869219542D-05-0.000000000000D+00 4.320000000000D+04
    1.585051318359D+04-1.692106246948D+00-0.000000000000D+00 0.000000000000D+00
    1.432363525391D+04-8.890132904053D-01-1.862645149231D-09-2.000000000000D+00
   -1.395408447266D+04-2.838168144226D+00 1.862645149231D-09 0.000000000000D+00
23 21  5  9 12 15  0.0 3.838203847408D-04 1.818989403546D-12 4.320000000000D+04
   -9.501878906250D+03-1.889718055725D+00-1.862645149231D-09 0.000000000000D+00
    1.594503906250D+04 1.490250587463D+00-0.000000000000D+00 3.000000000000D+00
    1.748859667969D+04-2.383103370667D+00-1.862645149231D-09 0.000000000000D+00
24 21  5  9 12 15  0.0 4.195328801870D-05 1.818989403546D-12 4.464000000000D+04
    3.638868164062D+03-2.594121932983D+00 0.000000000000D+00 0.000000000000D+00
    1.051448535156D+04 1.773092269897D+00-9.313225746155D-10 2.000000000000D+00
    2.296524316406D+04-4.016189575195D-01-1.862645149231D-09 0.000000000000D+00
22 21  5  9 12 45  0.0-1.118592917919D-04-9.094947017729D-13 4.500000000000D+04
   -2.025390185547D+04 1.079961776733D+00-4.656612873077D-09 0.000000000000D+00
    1.269929443359D+04-6.475534439087D-01 1.862645149231D-09-3.000000000000D+00
   -9.058701171875D+03-3.319746017456D+00-0.000000000000D+00 0.000000000000D+00
 1 21  5  9 12 45  0.0 7.915776222944D-05 0.000000000000D+00 4.500000000000D+04
   -3.125587890625D+03-4.286470413208D-01-1.862645149231D-09 0.000000000000D+00
    1.958742382812D+04-2.154304504395D+00-0.000000000000D+00 1.000000000000D+00
    1.603607666016D+04 2.550418853760D+00-1.862645149231D-09 0.000000000000D+00
 2 21  5  9 12 45  0.0 4.779100418091D-04 1.818989403546D-12 4.500000000000D+04
    7.075343261719D+03 2.765340805054D-01-1.862645149231D-09 0.000000000000D+00
    2.426074609375D+04 4.557123184204D-01-9.313225746155D-10-4.000000000000D+00
   -3.638586425781D+03 3.525074005127D+00 0.000000000000D+00 0.000000000000D+00
12 21  5  9 12 45  0.0 2.274755388498D-04 2.728484105319D-12 4.500000000000D+04
   -6.136862792969D+03-3.002439498901D+00-2.793967723846D-09 0.000000000000D+00
    9.493799316406D+03-8.990745544434D-01 9.313225746155D-10-1.000000000000D+00
   -2.284079833984D+04 4.342918395996D-01 9.313225746155D-10 0.000000000000D+00
23 21  5  9 12 45  0.0 3.838241100311D-04 1.818989403546D-12 4.500000000000D+04
   -1.224098291016D+04-1.146310806274D+00-2.793967723846D-09 0.000000000000D+00
    1.850643652344D+04 1.308741569519D+00 0.000000000000D+00 3.000000000000D+00
    1.257801171875D+04-3.037628173828D+00-1.862645149231D-09 0.000000000000D+00
13 21  5  9 12 45  0.0-5.451962351799D-05-0.000000000000D+00 4.503000000000D+04
    1.215137353516D+04-2.393516540527D+00-9.313225746155D-10 0.000000000000D+00
    1.276415136719D+04-8.041610717773D-01-9.313225746155D-10-2.000000000000D+00
   -1.845804638672D+04-2.133834838867D+00 1.862645149231D-09 0.000000000000D+00
24 21  5  9 12 45  0.0 4.195608198643D-05 1.818989403546D-12 4.512000000000D+04
   -6.547343750000D+02-2.142952919006D+00-9.313225746155D-10 0.000000000000D+00
    1.393607763672D+04 1.989651679993D+00-0.000000000000D+00 2.000000000000D+00
    2.136505810547D+04-1.364876747131D+00-1.862645149231D-09 0.000000000000D+00
 3 21  5  9 12 45  0.0 3.562681376934D-05 0.000000000000D+00 4.578000000000D+04
    1.192727685547D+04 6.531114578247D-01-9.313225746155D-10 0.000000000000D+00
    1.284042919922D+04 2.459902763367D+00-9.313225746155D-10 5.000000000000D+00
   -1.850749951172D+04 2.117298126221D+00 1.862645149231D-09 0.000000000000D+00
22 21  5  9 13 15  0.0-1.118611544371D-04-9.094947017729D-13 4.680000000000D+04
   -1.793320605469D+04 1.453413009644D+00-3.725290298462D-09 0.000000000000D+00
    1.087727636719D+04-1.383173942566D+00 2.793967723846D-09-3.000000000000D+00
   -1.460956542969D+04-2.808055877686D+00 0.000000000000D+00 0.000000000000D+00
 1 21  5  9 13 15  0.0 7.915869355202D-05 0.000000000000D+00 4.680000000000D+04
   -4.339381835938D+03-9.312858581543D-01-9.313225746155D-10 0.000000000000D+00
    1.529725830078D+04-2.566314697266D+00 0.000000000000D+00 1.000000000000D+00
    1.994758203125D+04 1.767539024353D+00-1.862645149231D-09 0.000000000000D+00
 2 21  5  9 13 15  0.0 4.779137670994D-04 1.818989403546D-12 4.680000000000D+04
    7.393839355469D+03 3.770542144775D-02-1.862645149231D-09 0.000000000000D+00
    2.429365820312D+04-4.085988998413D-01-9.313225746155D-10-4.000000000000D+00
    2.765070312500D+03 3.544048309326D+00-0.000000000000D+00 0.000000000000D+00
 3 21  5  9 13 15  0.0 3.562774509192D-05 0.000000000000D+00 4.680000000000D+04
    1.325775195312D+04 7.873353958130D-01-1.862645149231D-09 0.000000000000D+00
    1.666729931641D+04 1.764897346497D+00-9.313225746155D-10 5.000000000000D+00
   -1.402896337891D+04 2.826312065125D+00 9.313225746155D-10 0.000000000000D+00
12 21  5  9 13 15  0.0 2.274801954627D-04 2.728484105319D-12 4.680000000000D+04
   -1.147497167969D+04-2.877588272095D+00-2.793967723846D-09 0.000000000000D+00
    8.306781738281D+03-4.186305999756D-01 1.862645149231D-09-1.000000000000D+00
   -2.118394970703D+04 1.394696235657D+00 9.313225746155D-10 0.000000000000D+00
23 21  5  9 13 15  0.0 3.838278353214D-04 1.818989403546D-12 4.680000000000D+04
   -1.363753076172D+04-4.175558090210D-01-3.725290298462D-09 0.000000000000D+00
    2.049144873047D+04 8.537206649780D-01 9.313225746155D-10 3.000000000000D+00
    6.694554199219D+03-3.457068443298D+00-9.313225746155D-10 0.000000000000D+00
24 21  5  9 13 15  0.0 4.195887595415D-05 1.818989403546D-12 4.680000000000D+04
   -3.983781250000D+03-1.539196014404D+00-1.862645149231D-09 0.000000000000D+00
    1.752044726562D+04 1.946316719055D+00 0.000000000000D+00 2.000000000000D+00
    1.811491796875D+04-2.223018646240D+00-1.862645149231D-09 0.000000000000D+00
22 21  5  9 13 45  0.0-1.118639484048D-04-9.094947017729D-13 4.860000000000D+04
   -1.518961914062D+04 1.548445701599D+00-2.793967723846D-09 0.000000000000D+00
    7.732500488281D+03-2.097701072693D+00 2.793967723846D-09-3.000000000000D+00
   -1.903766845703D+04-2.080195426941D+00 9.313225746155D-10 0.000000000000D+00
 1 21  5  9 13 45  0.0 7.915962487459D-05 0.000000000000D+00 4.860000000000D+04
   -6.486797851562D+03-1.448023796082D+00-9.313225746155D-10 0.000000000000D+00
    1.052384082031D+04-2.687949180603D+00 0.000000000000D+00 1.000000000000D+00
    2.231725537109D+04 8.484067916870D-01-2.793967723846D-09 0.000000000000D+00
 2 21  5  9 13 45  0.0 4.779174923897D-04 1.818989403546D-12 4.860000000000D+04
    7.081520507812D+03-4.157075881958D-01-1.862645149231D-09 0.000000000000D+00
    2.286062109375D+04-1.155563354492D+00-0.000000000000D+00-4.000000000000D+00
    8.955893066406D+03 3.290230751038D+00-9.313225746155D-10 0.000000000000D+00
 3 21  5  9 13 45  0.0 3.562960773706D-05 0.000000000000D+00 4.860000000000D+04
    1.461393115234D+04 6.767759323120D-01-1.862645149231D-09 0.000000000000D+00
    1.912832617188D+04 9.608058929443D-01-9.313225746155D-10 5.000000000000D+00
   -8.464890625000D+03 3.315721511841D+00 0.000000000000D+00 0.000000000000D+00
12 21  5  9 13 45  0.0 2.274857833982D-04 2.728484105319D-12 4.860000000000D+04
   -1.631778955078D+04-2.456960678101D+00-2.793967723846D-09 0.000000000000D+00
    7.958566406250D+03 1.522636413574D-02 2.793967723846D-09-1.000000000000D+00
   -1.788487792969D+04 2.247074127197D+00 0.000000000000D+00 0.000000000000D+00
23 21  5  9 13 45  0.0 3.838324919343D-04 1.818989403546D-12 4.860000000000D+04
   -1.381971044922D+04 1.861724853516D-01-3.725290298462D-09 0.000000000000D+00
    2.144258496094D+04 1.713018417358D-01 1.862645149231D-09 3.000000000000D+00
    2.934223632812D+02-3.609111785889D+00-9.313225746155D-10 0.000000000000D+00
24 21  5  9 13 45  0.0 4.196166992188D-05 1.818989403546D-12 4.860000000000D+04
   -6.169130859375D+03-8.910226821899D-01-2.793967723846D-09 0.000000000000D+00
    2.077180371094D+04 1.619527816772D+00 9.313225746155D-10 2.000000000000D+00
    1.346530859375D+04-2.909738540649D+00-1.862645149231D-09 0.000000000000D+00
 3 21  5  9 14 15  0.0 3.563053905964D-05 9.094947017729D-13 5.040000000000D+04
    1.554229199219D+04 3.146476745605D-01-2.793967723846D-09 0.000000000000D+00
    2.012960839844D+04 1.622295379639D-01-0.000000000000D+00 5.000000000000D+00
   -2.246793457031D+03 3.548427581787D+00-0.000000000000D+00 0.000000000000D+00
 2 21  5  9 14 15  0.0 4.779212176800D-04 1.818989403546D-12 5.040000000000D+04
    5.810157714844D+03-1.013385772705D+00-1.862645149231D-09 0.000000000000D+00
    2.025991357422D+04-1.693246841431D+00 0.000000000000D+00-4.000000000000D+00
    1.445786083984D+04 2.783656120300D+00-1.862645149231D-09 0.000000000000D+00
12 21  5  9 14 15  0.0 2.274904400110D-04 2.728484105319D-12 5.040000000000D+04
   -2.017234228516D+04-1.791452407837D+00-1.862645149231D-09 0.000000000000D+00
    8.274474121094D+03 3.048009872437D-01 3.725290298462D-09-1.000000000000D+00
   -1.319931787109D+04 2.925188064575D+00 0.000000000000D+00 0.000000000000D+00
23 21  5  9 14 15  0.0 3.838371485472D-04 1.818989403546D-12 5.040000000000D+04
   -1.309432373047D+04 5.795316696167D-01-2.793967723846D-09 0.000000000000D+00
    2.102258544922D+04-6.528205871582D-01 2.793967723846D-09 3.000000000000D+00
   -6.130422363281D+03-3.482172966003D+00-0.000000000000D+00 0.000000000000D+00
